[{"OBJECT_NAME":"STARLINK-33986","OBJECT_ID":"2025-094G","EPOCH":"2026-03-09T21:19:41.475072","MEAN_MOTION":14.98343873,"ECCENTRICITY":0.0002863,"INCLINATION":70.0015,"RA_OF_ASC_NODE":233.9223,"ARG_OF_PERICENTER":269.4405,"MEAN_ANOMALY":90.6427,"EPHEMERIS_TYPE":0,"CLASSIFICATION_TYPE":"U","NORAD_CAT_ID":63870,"ELEMENT_SET_NO":999,"REV_AT_EPOCH":4723,"BSTAR":0.00030604895,"MEAN_MOTION_DOT":3.562e-5,"MEAN_MOTION_DDOT":0},{"OBJECT_NAME":"FENGYUN 1C DEB","OBJECT_ID":"1999-025JS","EPOCH":"2026-03-09T09:31:11.592480","MEAN_MOTION":14.89836418,"ECCENTRICITY":0.01602799,"INCLINATION":99.0124,"RA_OF_ASC_NODE":19.279,"ARG_OF_PERICENTER":316.4187,"MEAN_ANOMALY":42.4455,"EPHEMERIS_TYPE":0,"CLASSIFICATION_TYPE":"U","NORAD_CAT_ID":29944,"ELEMENT_SET_NO":999,"REV_AT_EPOCH":1743,"BSTAR":0.0013476123,"MEAN_MOTION_DOT":0.00016456,"MEAN_MOTION_DDOT":0}]
